[{
    "OBJECT_NAME": "STARLINK-3135",
    "OBJECT_ID": "2021-104S",
    "EPOCH": "2023-06-18T19:55:30.870624",
    "MEAN_MOTION": 15.08837089,
    "ECCENTRICITY": 6.31e-5,
    "INCLINATION": 53.2193,
    "RA_OF_ASC_NODE": 15.2184,
    "ARG_OF_PERICENTER": 75.1169,
    "MEAN_ANOMALY": 284.9893,
    "EPHEMERIS_TYPE": 0,
    "CLASSIFICATION_TYPE": "U",
    "NORAD_CAT_ID": 49424,
    "ELEMENT_SET_NO": 999,
    "REV_AT_EPOCH": 8843,
    "BSTAR": 5.9828e-7,
    "MEAN_MOTION_DOT": -2.78e-6,
    "MEAN_MOTION_DDOT": 0
},{
    "OBJECT_NAME": "STARLINK-3139",
    "OBJECT_ID": "2021-104T",
    "EPOCH": "2023-06-19T00:21:51.116544",
    "MEAN_MOTION": 15.08840488,
    "ECCENTRICITY": 9.4e-5,
    "INCLINATION": 53.2179,
    "RA_OF_ASC_NODE": 14.3983,
    "ARG_OF_PERICENTER": 84.3818,
    "MEAN_ANOMALY": 275.7281,
    "EPHEMERIS_TYPE": 0,
    "CLASSIFICATION_TYPE": "U",
    "NORAD_CAT_ID": 49425,
    "ELEMENT_SET_NO": 999,
    "REV_AT_EPOCH": 8955,
    "BSTAR": 9.1812e-5,
    "MEAN_MOTION_DOT": 1.174e-5,
    "MEAN_MOTION_DDOT": 0
},{
    "OBJECT_NAME": "STARLINK-3114",
    "OBJECT_ID": "2021-104U",
    "EPOCH": "2023-06-18T07:01:50.049696",
    "MEAN_MOTION": 15.08834037,
    "ECCENTRICITY": 0.0001044,
    "INCLINATION": 53.2184,
    "RA_OF_ASC_NODE": 17.6307,
    "ARG_OF_PERICENTER": 100.0173,
    "MEAN_ANOMALY": 260.0937,
    "EPHEMERIS_TYPE": 0,
    "CLASSIFICATION_TYPE": "U",
    "NORAD_CAT_ID": 49426,
    "ELEMENT_SET_NO": 999,
    "REV_AT_EPOCH": 8835,
    "BSTAR": -2.7465e-5,
    "MEAN_MOTION_DOT": -7.25e-6,
    "MEAN_MOTION_DDOT": 0
},{
    "OBJECT_NAME": "STARLINK-3131",
    "OBJECT_ID": "2021-104V",
    "EPOCH": "2023-06-19T00:16:32.042208",
    "MEAN_MOTION": 15.08853426,
    "ECCENTRICITY": 0.0001116,
    "INCLINATION": 53.2187,
    "RA_OF_ASC_NODE": 14.4134,
    "ARG_OF_PERICENTER": 101.8916,
    "MEAN_ANOMALY": 258.2201,
    "EPHEMERIS_TYPE": 0,
    "CLASSIFICATION_TYPE": "U",
    "NORAD_CAT_ID": 49427,
    "ELEMENT_SET_NO": 999,
    "REV_AT_EPOCH": 8956,
    "BSTAR": 0.00010611,
    "MEAN_MOTION_DOT": 1.402e-5,
    "MEAN_MOTION_DDOT": 0
},{
    "OBJECT_NAME": "STARLINK-3121",
    "OBJECT_ID": "2021-104W",
    "EPOCH": "2023-06-18T20:49:52.810176",
    "MEAN_MOTION": 15.08842235,
    "ECCENTRICITY": 9.02e-5,
    "INCLINATION": 53.2179,
    "RA_OF_ASC_NODE": 15.0471,
    "ARG_OF_PERICENTER": 74.6954,
    "MEAN_ANOMALY": 285.4137,
    "EPHEMERIS_TYPE": 0,
    "CLASSIFICATION_TYPE": "U",
    "NORAD_CAT_ID": 49428,
    "ELEMENT_SET_NO": 999,
    "REV_AT_EPOCH": 8845,
    "BSTAR": 8.9224e-5,
    "MEAN_MOTION_DOT": 1.133e-5,
    "MEAN_MOTION_DDOT": 0
},{
    "OBJECT_NAME": "STARLINK-3138",
    "OBJECT_ID": "2021-104Y",
    "EPOCH": "2023-06-18T20:59:05.720064",
    "MEAN_MOTION": 15.0884751,
    "ECCENTRICITY": 0.0001112,
    "INCLINATION": 53.2175,
    "RA_OF_ASC_NODE": 15.0198,
    "ARG_OF_PERICENTER": 107.8914,
    "MEAN_ANOMALY": 252.2199,
    "EPHEMERIS_TYPE": 0,
    "CLASSIFICATION_TYPE": "U",
    "NORAD_CAT_ID": 49430,
    "ELEMENT_SET_NO": 999,
    "REV_AT_EPOCH": 8845,
    "BSTAR": 0.00030165,
    "MEAN_MOTION_DOT": 4.517e-5,
    "MEAN_MOTION_DDOT": 0
},{
    "OBJECT_NAME": "STARLINK-3153",
    "OBJECT_ID": "2021-104Z",
    "EPOCH": "2023-06-18T20:37:56.777952",
    "MEAN_MOTION": 15.0884239,
    "ECCENTRICITY": 9.38e-5,
    "INCLINATION": 53.2184,
    "RA_OF_ASC_NODE": 15.343,
    "ARG_OF_PERICENTER": 73.1489,
    "MEAN_ANOMALY": 286.9606,
    "EPHEMERIS_TYPE": 0,
    "CLASSIFICATION_TYPE": "U",
    "NORAD_CAT_ID": 49431,
    "ELEMENT_SET_NO": 999,
    "REV_AT_EPOCH": 8844,
    "BSTAR": -7.3981e-6,
    "MEAN_MOTION_DOT": -4.05e-6,
    "MEAN_MOTION_DDOT": 0
},{
    "OBJECT_NAME": "STARLINK-3158",
    "OBJECT_ID": "2021-104AA",
    "EPOCH": "2023-06-18T20:08:48.281280",
    "MEAN_MOTION": 15.08846704,
    "ECCENTRICITY": 9.64e-5,
    "INCLINATION": 53.2172,
    "RA_OF_ASC_NODE": 5.1775,
    "ARG_OF_PERICENTER": 93.5148,
    "MEAN_ANOMALY": 266.5954,
    "EPHEMERIS_TYPE": 0,
    "CLASSIFICATION_TYPE": "U",
    "NORAD_CAT_ID": 49432,
    "ELEMENT_SET_NO": 999,
    "REV_AT_EPOCH": 8858,
    "BSTAR": 0.0002109,
    "MEAN_MOTION_DOT": 3.071e-5,
    "MEAN_MOTION_DDOT": 0
},{
    "OBJECT_NAME": "STARLINK-3079",
    "OBJECT_ID": "2021-104AB",
    "EPOCH": "2023-06-18T18:33:23.485536",
    "MEAN_MOTION": 15.08833613,
    "ECCENTRICITY": 8.06e-5,
    "INCLINATION": 53.218,
    "RA_OF_ASC_NODE": 355.4746,
    "ARG_OF_PERICENTER": 77.4183,
    "MEAN_ANOMALY": 282.6899,
    "EPHEMERIS_TYPE": 0,
    "CLASSIFICATION_TYPE": "U",
    "NORAD_CAT_ID": 49433,
    "ELEMENT_SET_NO": 999,
    "REV_AT_EPOCH": 8980,
    "BSTAR": 1.6276e-5,
    "MEAN_MOTION_DOT": -2.9e-7,
    "MEAN_MOTION_DDOT": 0
},{
    "OBJECT_NAME": "STARLINK-3134",
    "OBJECT_ID": "2021-104AC",
    "EPOCH": "2023-06-19T00:05:56.793984",
    "MEAN_MOTION": 15.08846281,
    "ECCENTRICITY": 9.92e-5,
    "INCLINATION": 53.2182,
    "RA_OF_ASC_NODE": 14.4483,
    "ARG_OF_PERICENTER": 84.393,
    "MEAN_ANOMALY": 275.7175,
    "EPHEMERIS_TYPE": 0,
    "CLASSIFICATION_TYPE": "U",
    "NORAD_CAT_ID": 49434,
    "ELEMENT_SET_NO": 999,
    "REV_AT_EPOCH": 8955,
    "BSTAR": 3.7704e-5,
    "MEAN_MOTION_DOT": 3.12e-6,
    "MEAN_MOTION_DDOT": 0
},{
    "OBJECT_NAME": "STARLINK-3117",
    "OBJECT_ID": "2021-104AD",
    "EPOCH": "2023-06-18T18:40:02.761536",
    "MEAN_MOTION": 15.08848107,
    "ECCENTRICITY": 9.28e-5,
    "INCLINATION": 53.2164,
    "RA_OF_ASC_NODE": 355.456,
    "ARG_OF_PERICENTER": 97.7394,
    "MEAN_ANOMALY": 262.3704,
    "EPHEMERIS_TYPE": 0,
    "CLASSIFICATION_TYPE": "U",
    "NORAD_CAT_ID": 49435,
    "ELEMENT_SET_NO": 999,
    "REV_AT_EPOCH": 8871,
    "BSTAR": 0.00038566,
    "MEAN_MOTION_DOT": 5.857e-5,
    "MEAN_MOTION_DDOT": 0
},{
    "OBJECT_NAME": "STARLINK-3049",
    "OBJECT_ID": "2021-104AE",
    "EPOCH": "2023-06-18T18:38:40.124256",
    "MEAN_MOTION": 15.08846125,
    "ECCENTRICITY": 0.0001138,
    "INCLINATION": 53.2175,
    "RA_OF_ASC_NODE": 355.4575,
    "ARG_OF_PERICENTER": 96.5085,
    "MEAN_ANOMALY": 263.6037,
    "EPHEMERIS_TYPE": 0,
    "CLASSIFICATION_TYPE": "U",
    "NORAD_CAT_ID": 49436,
    "ELEMENT_SET_NO": 999,
    "REV_AT_EPOCH": 8871,
    "BSTAR": 0.00032449,
    "MEAN_MOTION_DOT": 4.881e-5,
    "MEAN_MOTION_DDOT": 0
},{
    "OBJECT_NAME": "STARLINK-3130",
    "OBJECT_ID": "2021-104AF",
    "EPOCH": "2023-06-18T23:14:13.895232",
    "MEAN_MOTION": 15.08845445,
    "ECCENTRICITY": 0.0001143,
    "INCLINATION": 53.2183,
    "RA_OF_ASC_NODE": 354.5975,
    "ARG_OF_PERICENTER": 82.2037,
    "MEAN_ANOMALY": 277.9085,
    "EPHEMERIS_TYPE": 0,
    "CLASSIFICATION_TYPE": "U",
    "NORAD_CAT_ID": 49437,
    "ELEMENT_SET_NO": 999,
    "REV_AT_EPOCH": 8981,
    "BSTAR": 0.00036262,
    "MEAN_MOTION_DOT": 5.489e-5,
    "MEAN_MOTION_DDOT": 0
},{
    "OBJECT_NAME": "STARLINK-3044",
    "OBJECT_ID": "2021-104AG",
    "EPOCH": "2023-06-18T21:24:18.355968",
    "MEAN_MOTION": 15.08847959,
    "ECCENTRICITY": 0.0001046,
    "INCLINATION": 53.2185,
    "RA_OF_ASC_NODE": 354.8734,
    "ARG_OF_PERICENTER": 113.5361,
    "MEAN_ANOMALY": 246.5741,
    "EPHEMERIS_TYPE": 0,
    "CLASSIFICATION_TYPE": "U",
    "NORAD_CAT_ID": 49438,
    "ELEMENT_SET_NO": 999,
    "REV_AT_EPOCH": 8980,
    "BSTAR": 0.00012579,
    "MEAN_MOTION_DOT": 1.715e-5,
    "MEAN_MOTION_DDOT": 0
}]