STARLINK-3135           
1 49424U 21104S   23169.83021841 -.00000278  00000+0  59828-6 0  9994
2 49424  53.2193  15.2184 0000631  75.1169 284.9893 15.08837089 88433
STARLINK-3139           
1 49425U 21104T   23170.01517496  .00001174  00000+0  91812-4 0  9995
2 49425  53.2179  14.3983 0000940  84.3818 275.7281 15.08840488 89551
STARLINK-3114           
1 49426U 21104U   23169.29294039 -.00000725  00000+0 -27465-4 0  9995
2 49426  53.2184  17.6307 0001044 100.0173 260.0937 15.08834037 88355
STARLINK-3131           
1 49427U 21104V   23170.01148197  .00001402  00000+0  10611-3 0  9996
2 49427  53.2187  14.4134 0001116 101.8916 258.2201 15.08853426 89566
STARLINK-3121           
1 49428U 21104W   23169.86797234  .00001133  00000+0  89224-4 0  9998
2 49428  53.2179  15.0471 0000902  74.6954 285.4137 15.08842235 88453
STARLINK-3138           
1 49430U 21104Y   23169.87437176  .00004517  00000+0  30165-3 0  9996
2 49430  53.2175  15.0198 0001112 107.8914 252.2199 15.08847510 88458
STARLINK-3153           
1 49431U 21104Z   23169.85968493 -.00000405  00000+0 -73981-5 0  9995
2 49431  53.2184  15.3430 0000938  73.1489 286.9606 15.08842390 88445
STARLINK-3158           
1 49432U 21104AA  23169.83944770  .00003071  00000+0  21090-3 0  9998
2 49432  53.2172   5.1775 0000964  93.5148 266.5954 15.08846704 88587
STARLINK-3079           
1 49433U 21104AB  23169.77318849 -.00000029  00000+0  16276-4 0  9996
2 49433  53.2180 355.4746 0000806  77.4183 282.6899 15.08833613 89809
STARLINK-3134           
1 49434U 21104AC  23170.00412956  .00000312  00000+0  37704-4 0  9992
2 49434  53.2182  14.4483 0000992  84.3930 275.7175 15.08846281 89552
STARLINK-3117           
1 49435U 21104AD  23169.77780974  .00005857  00000+0  38566-3 0  9998
2 49435  53.2164 355.4560 0000928  97.7394 262.3704 15.08848107 88714
STARLINK-3049           
1 49436U 21104AE  23169.77685329  .00004881  00000+0  32449-3 0  9997
2 49436  53.2175 355.4575 0001138  96.5085 263.6037 15.08846125 88712
STARLINK-3130           
1 49437U 21104AF  23169.96821638  .00005489  00000+0  36262-3 0  9996
2 49437  53.2183 354.5975 0001143  82.2037 277.9085 15.08845445 89818
STARLINK-3044           
1 49438U 21104AG  23169.89187912  .00001715  00000+0  12579-3 0  9992
2 49438  53.2185 354.8734 0001046 113.5361 246.5741 15.08847959 89809
